OBJECT_NAME,OBJECT_ID,EPOCH,MEAN_MOTION,ECCENTRICITY,INCLINATION,RA_OF_ASC_NODE,ARG_OF_PERICENTER,MEAN_ANOMALY,EPHEMERIS_TYPE,CLASSIFICATION_TYPE,NORAD_CAT_ID,ELEMENT_SET_NO,REV_AT_EPOCH,BSTAR,MEAN_MOTION_DOT,MEAN_MOTION_DDOT
JILIN-1 07,2018-008E,2026-07-09T07:46:13.772064,15.35099068,.00074031,97.1770,209.6658,352.1040,8.0086,0,U,43159,999,46839,.18888242E-3,.636E-4,0
JILIN-1 08,2018-008F,2026-07-09T05:00:54.797184,15.33965155,.00060555,97.1806,208.8460,14.7477,345.3942,0,U,43160,999,46832,.13198354E-3,.4262E-4,0
S-NET D,2018-014G,2026-07-09T03:59:36.461472,15.16882692,.00065592,97.5339,94.8202,310.9824,49.0841,0,U,43186,999,46209,.17626083E-3,.3404E-4,0
S-NET B,2018-014H,2026-07-09T04:16:43.169952,15.16852830,.00071242,97.5346,94.8194,304.9519,55.1044,0,U,43187,999,46209,.15958427E-3,.3073E-4,0
S-NET A,2018-014J,2026-07-09T03:57:48.989376,15.16890948,.0007023,97.5355,95.0194,305.7990,54.2590,0,U,43188,999,46209,.17591927E-3,.3399E-4,0
S-NET C,2018-014K,2026-07-09T04:22:28.019136,15.16844308,.00082276,97.5372,95.1143,295.6142,64.4240,0,U,43189,999,46064,.15551061E-3,.2993E-4,0
PAZ,2018-020A,2026-07-09T07:18:39.316608,15.19144342,.00017031,97.4452,197.3759,88.7419,271.4011,0,U,43215,999,46436,.64702728E-4,.1292E-4,0
GOES 17,2018-022A,2026-07-09T06:22:57.631584,1.00271300,.00005849,0.9903,85.3521,71.0327,137.0684,0,U,43226,999,3064,0,-.17E-5,0
LKW-4,2018-025A,2026-07-08T12:35:42.365760,15.64084753,.00030106,97.6356,2.1000,205.9473,154.1635,0,U,43236,999,46336,.3959566E-3,.37439E-3,0
ZHUHAI-1 OVS-02,2018-040B,2026-07-09T08:12:04.069728,15.25325797,.00044894,97.0388,206.2599,150.1143,210.0353,0,U,43440,999,45609,.2001256E-3,.4977E-4,0
ZHUHAI-1 OHS-02,2018-040C,2026-07-09T07:32:27.563424,15.26210736,.00107286,97.0368,213.1956,143.0556,217.1424,0,U,43441,999,11765,.21033527E-3,.5383E-4,0
GAOFEN-6,2018-048A,2026-07-09T05:34:34.912992,14.76378180,.00121289,98.0958,252.9203,98.3111,261.9474,0,U,43484,999,43664,-.6778197E-5,-.1E-5,0
LUOJIA-1 01,2018-048B,2026-07-09T07:23:38.035968,14.87368879,.00101202,97.8094,268.1411,55.1780,305.0387,0,U,43485,999,43750,.16372515E-3,.1426E-4,0
PAKTES 1A,2018-056A,2026-07-09T07:08:48.964416,14.99188583,.00202222,98.1290,347.7277,37.7936,322.4701,0,U,43529,999,43523,.97219433E-4,.1122E-4,0
PRSS-1,2018-056B,2026-07-09T08:03:14.593248,14.82022520,.00012907,97.7807,257.5916,82.7181,277.4179,0,U,43530,999,43171,.57256288E-4,.403E-5,0
HAIYANG-1C,2018-068A,2026-07-09T06:59:13.931808,14.34185687,.00115307,98.5179,262.2792,35.0827,325.1115,0,U,43609,999,41025,.22045826E-4,.18E-6,0
SSTL S1-4,2018-071A,2026-07-09T07:00:21.134592,14.96197211,.00020636,97.5002,60.9833,93.7479,266.3979,0,U,43618,999,42624,-.2220609E-4,-.304E-5,0
HAIYANG-2B,2018-081A,2026-07-09T06:53:43.332576,13.79309464,.0000644,99.3293,198.7101,156.6401,203.4781,0,U,43655,999,38797,.6131732E-4,.19E-6,0
CFOSAT,2018-083A,2026-07-09T06:21:42.771168,15.16513265,.00020206,97.3611,194.1465,77.9531,282.1928,0,U,43662,999,42578,.11290747E-3,.2135E-4,0
TEN-KOH,2018-084G,2026-07-08T18:15:34.298496,15.03021162,.00101224,98.0749,23.0312,49.4353,310.7751,0,U,43677,999,41940,.16077552E-3,.21E-4,0
DIWATA-2B,2018-084H,2026-07-09T07:25:41.694240,15.00547321,.00130676,98.1220,27.4852,102.3642,257.9044,0,U,43678,999,41953,.10275846E-3,.1232E-4,0
STARS-AO,2018-084J,2026-07-08T20:07:04.713600,15.17298526,.00036895,98.0487,45.1453,93.4593,266.7061,0,U,43679,999,42075,.17986041E-3,.3508E-4,0
AUTCUBE 2,2018-084K,2026-07-09T00:42:43.864704,15.10240166,.00082065,98.0706,37.3631,338.5327,21.5555,0,U,43681,999,42022,.11939536E-3,.1882E-4,0
METOP-C,2018-087A,2026-07-09T07:27:00.297504,14.21517995,.00022146,98.6633,249.5085,101.3156,258.8270,0,U,43689,999,39797,.42635925E-4,.5E-6,0
ES'HAIL 2,2018-090A,2026-07-09T06:55:54.473952,1.00273126,.00023803,0.0156,342.6577,173.8878,260.4812,0,U,43700,999,2789,0,.158E-5,0
MOHAMMED VI-B,2018-095A,2026-07-09T07:53:04.223904,14.77077024,.00017056,97.9545,262.3480,96.5345,263.6060,0,U,43717,999,41145,.42931705E-4,.252E-5,0
HYSIS,2018-096A,2026-07-09T08:09:18.814176,14.78662311,.00018593,97.9827,256.9134,87.2064,272.9359,0,U,43719,999,41069,.79184857E-4,.528E-5,0
COSMOS 2530 (RODNIK-S 16),2018-097A,2026-07-09T08:27:35.943840,12.42881314,.00192298,82.5127,208.5243,351.8784,8.1982,0,U,43751,999,34504,-.55012679E-3,-.66E-6,0
COSMOS 2531 (RODNIK-S 17),2018-097B,2026-07-09T07:02:58.493184,12.42912619,.00168622,82.5173,209.6267,11.8381,348.3092,0,U,43752,999,34505,-.40588444E-3,-.46E-6,0
