JILIN-1 07              
1 43159U 18008E   26190.32377051  .00006360  00000+0  18888-3 0  9995
2 43159  97.1770 209.6658 0007403 352.1040   8.0086 15.35099068468398
JILIN-1 08              
1 43160U 18008F   26190.20896756  .00004262  00000+0  13198-3 0  9990
2 43160  97.1806 208.8460 0006055  14.7477 345.3942 15.33965155468327
S-NET D                 
1 43186U 18014G   26190.16639423  .00003404  00000+0  17626-3 0  9993
2 43186  97.5339  94.8202 0006559 310.9824  49.0841 15.16882692462092
S-NET B                 
1 43187U 18014H   26190.17827743  .00003073  00000+0  15958-3 0  9997
2 43187  97.5346  94.8194 0007124 304.9519  55.1044 15.16852830462098
S-NET A                 
1 43188U 18014J   26190.16515034  .00003399  00000+0  17592-3 0  9991
2 43188  97.5355  95.0194 0007023 305.7990  54.2590 15.16890948462090
S-NET C                 
1 43189U 18014K   26190.18226874  .00002993  00000+0  15551-3 0  9997
2 43189  97.5372  95.1143 0008227 295.6142  64.4240 15.16844308460641
PAZ                     
1 43215U 18020A   26190.30462172  .00001292  00000+0  64703-4 0  9996
2 43215  97.4452 197.3759 0001703  88.7419 271.4011 15.19144342464360
GOES 17                 
1 43226U 18022A   26190.26594481 -.00000170  00000+0  00000+0 0  9994
2 43226   0.9903  85.3521 0000584  71.0327 137.0684  1.00271300 30647
LKW-4                   
1 43236U 18025A   26189.52479590  .00037439  00000+0  39596-3 0  9991
2 43236  97.6356   2.1000 0003010 205.9473 154.1635 15.64084753463363
ZHUHAI-1 OVS-02         
1 43440U 18040B   26190.34171377  .00004977  00000+0  20013-3 0  9994
2 43440  97.0388 206.2599 0004489 150.1143 210.0353 15.25325797456099
ZHUHAI-1 OHS-02         
1 43441U 18040C   26190.31420791  .00005383  00000+0  21034-3 0  9995
2 43441  97.0368 213.1956 0010728 143.0556 217.1424 15.26210736117654
GAOFEN-6                
1 43484U 18048A   26190.23234853 -.00000100  00000+0 -67782-5 0  9999
2 43484  98.0958 252.9203 0012128  98.3111 261.9474 14.76378180436645
LUOJIA-1 01             
1 43485U 18048B   26190.30807912  .00001426  00000+0  16373-3 0  9998
2 43485  97.8094 268.1411 0010120  55.1780 305.0387 14.87368879437502
PAKTES 1A               
1 43529U 18056A   26190.29778894  .00001122  00000+0  97219-4 0  9992
2 43529  98.1290 347.7277 0020222  37.7936 322.4701 14.99188583435236
PRSS-1                  
1 43530U 18056B   26190.33558557  .00000403  00000+0  57256-4 0  9999
2 43530  97.7807 257.5916 0001290  82.7181 277.4179 14.82022520431718
HAIYANG-1C              
1 43609U 18068A   26190.29113347  .00000018  00000+0  22046-4 0  9999
2 43609  98.5179 262.2792 0011530  35.0827 325.1115 14.34185687410255
SSTL S1-4               
1 43618U 18071A   26190.29191128 -.00000304  00000+0 -22206-4 0  9994
2 43618  97.5002  60.9833 0002063  93.7479 266.3979 14.96197211426247
HAIYANG-2B              
1 43655U 18081A   26190.28730709  .00000019  00000+0  61317-4 0  9996
2 43655  99.3293 198.7101 0000644 156.6401 203.4781 13.79309464387979
CFOSAT                  
1 43662U 18083A   26190.26507837  .00002135  00000+0  11291-3 0  9994
2 43662  97.3611 194.1465 0002020  77.9531 282.1928 15.16513265425789
TEN-KOH                 
1 43677U 18084G   26189.76081364  .00002100  00000+0  16078-3 0  9996
2 43677  98.0749  23.0312 0010122  49.4353 310.7751 15.03021162419404
DIWATA-2B               
1 43678U 18084H   26190.30951035  .00001232  00000+0  10276-3 0  9999
2 43678  98.1220  27.4852 0013067 102.3642 257.9044 15.00547321419536
STARS-AO                
1 43679U 18084J   26189.83824900  .00003508  00000+0  17986-3 0  9999
2 43679  98.0487  45.1453 0003689  93.4593 266.7061 15.17298526420750
AUTCUBE 2               
1 43681U 18084K   26190.02967436  .00001882  00000+0  11940-3 0  9994
2 43681  98.0706  37.3631 0008206 338.5327  21.5555 15.10240166420223
METOP-C                 
1 43689U 18087A   26190.31042011  .00000050  00000+0  42636-4 0  9993
2 43689  98.6633 249.5085 0002214 101.3156 258.8270 14.21517995397977
ES'HAIL 2               
1 43700U 18090A   26190.28882493  .00000158  00000+0  00000+0 0  9996
2 43700   0.0156 342.6577 0002380 173.8878 260.4812  1.00273126 27898
MOHAMMED VI-B           
1 43717U 18095A   26190.32852111  .00000252  00000+0  42932-4 0  9998
2 43717  97.9545 262.3480 0001705  96.5345 263.6060 14.77077024411450
HYSIS                   
1 43719U 18096A   26190.33980109  .00000528  00000+0  79185-4 0  9997
2 43719  97.9827 256.9134 0001859  87.2064 272.9359 14.78662311410694
COSMOS 2530 (RODNIK-S *)
1 43751U 18097A   26190.35249935 -.00000066  00000+0 -55013-3 0  9993
2 43751  82.5127 208.5243 0019229 351.8784   8.1982 12.42881314345048
COSMOS 2531 (RODNIK-S *)
1 43752U 18097B   26190.29373256 -.00000046  00000+0 -40588-3 0  9990
2 43752  82.5173 209.6267 0016862  11.8381 348.3092 12.42912619345059
